[{"OBJECT_NAME":"ONEWEB-0593","OBJECT_ID":"2022-166T","EPOCH":"2025-07-31T14:38:01.374432","MEAN_MOTION":13.21826118,"ECCENTRICITY":0.0002056,"INCLINATION":87.9271,"RA_OF_ASC_NODE":307.9407,"ARG_OF_PERICENTER":105.0375,"MEAN_ANOMALY":255.0986,"EPHEMERIS_TYPE":0,"CLASSIFICATION_TYPE":"U","NORAD_CAT_ID":54659,"ELEMENT_SET_NO":999,"REV_AT_EPOCH":12919,"BSTAR":7.5449e-5,"MEAN_MOTION_DOT":4.4e-7,"MEAN_MOTION_DDOT":0},{"OBJECT_NAME":"ONEWEB-0594","OBJECT_ID":"2022-166U","EPOCH":"2025-07-31T18:43:16.612896","MEAN_MOTION":13.21825359,"ECCENTRICITY":0.0002037,"INCLINATION":87.9273,"RA_OF_ASC_NODE":307.9218,"ARG_OF_PERICENTER":98.0284,"MEAN_ANOMALY":262.1081,"EPHEMERIS_TYPE":0,"CLASSIFICATION_TYPE":"U","NORAD_CAT_ID":54660,"ELEMENT_SET_NO":999,"REV_AT_EPOCH":12969,"BSTAR":-0.00013522,"MEAN_MOTION_DOT":-4.3e-7,"MEAN_MOTION_DDOT":0},{"OBJECT_NAME":"ONEWEB-0595","OBJECT_ID":"2022-166V","EPOCH":"2025-07-31T07:17:27.785184","MEAN_MOTION":13.2182653,"ECCENTRICITY":0.0001846,"INCLINATION":87.9272,"RA_OF_ASC_NODE":307.9929,"ARG_OF_PERICENTER":95.27,"MEAN_ANOMALY":264.8645,"EPHEMERIS_TYPE":0,"CLASSIFICATION_TYPE":"U","NORAD_CAT_ID":54661,"ELEMENT_SET_NO":999,"REV_AT_EPOCH":12914,"BSTAR":0.0001642,"MEAN_MOTION_DOT":8.1e-7,"MEAN_MOTION_DDOT":0},{"OBJECT_NAME":"ONEWEB-0596","OBJECT_ID":"2022-166W","EPOCH":"2025-07-31T12:05:51.907200","MEAN_MOTION":13.21826148,"ECCENTRICITY":0.0001912,"INCLINATION":87.9272,"RA_OF_ASC_NODE":307.9676,"ARG_OF_PERICENTER":100.5458,"MEAN_ANOMALY":259.5891,"EPHEMERIS_TYPE":0,"CLASSIFICATION_TYPE":"U","NORAD_CAT_ID":54662,"ELEMENT_SET_NO":999,"REV_AT_EPOCH":12917,"BSTAR":0.00023609,"MEAN_MOTION_DOT":1.11e-6,"MEAN_MOTION_DDOT":0},{"OBJECT_NAME":"ONEWEB-0597","OBJECT_ID":"2022-166X","EPOCH":"2025-07-31T13:27:37.840896","MEAN_MOTION":13.21821573,"ECCENTRICITY":0.0002054,"INCLINATION":87.9273,"RA_OF_ASC_NODE":307.9597,"ARG_OF_PERICENTER":103.8594,"MEAN_ANOMALY":256.2768,"EPHEMERIS_TYPE":0,"CLASSIFICATION_TYPE":"U","NORAD_CAT_ID":54663,"ELEMENT_SET_NO":999,"REV_AT_EPOCH":12918,"BSTAR":0.0028822,"MEAN_MOTION_DOT":1.203e-5,"MEAN_MOTION_DDOT":0},{"OBJECT_NAME":"ONEWEB-0600","OBJECT_ID":"2022-166Y","EPOCH":"2025-07-31T18:29:39.477984","MEAN_MOTION":13.21825921,"ECCENTRICITY":0.0002147,"INCLINATION":87.9266,"RA_OF_ASC_NODE":307.9142,"ARG_OF_PERICENTER":101.0263,"MEAN_ANOMALY":259.1112,"EPHEMERIS_TYPE":0,"CLASSIFICATION_TYPE":"U","NORAD_CAT_ID":54664,"ELEMENT_SET_NO":999,"REV_AT_EPOCH":12965,"BSTAR":3.6213e-6,"MEAN_MOTION_DOT":1.5e-7,"MEAN_MOTION_DDOT":0},{"OBJECT_NAME":"ONEWEB-0601","OBJECT_ID":"2022-166Z","EPOCH":"2025-07-31T12:51:16.872480","MEAN_MOTION":13.21826778,"ECCENTRICITY":0.0002109,"INCLINATION":87.9273,"RA_OF_ASC_NODE":307.9755,"ARG_OF_PERICENTER":109.3259,"MEAN_ANOMALY":250.8103,"EPHEMERIS_TYPE":0,"CLASSIFICATION_TYPE":"U","NORAD_CAT_ID":54665,"ELEMENT_SET_NO":999,"REV_AT_EPOCH":12934,"BSTAR":0.00030647,"MEAN_MOTION_DOT":1.4e-6,"MEAN_MOTION_DDOT":0},{"OBJECT_NAME":"ONEWEB-0602","OBJECT_ID":"2022-166AA","EPOCH":"2025-07-31T12:01:19.072416","MEAN_MOTION":13.21827233,"ECCENTRICITY":0.0002251,"INCLINATION":87.9276,"RA_OF_ASC_NODE":307.9831,"ARG_OF_PERICENTER":103.0213,"MEAN_ANOMALY":257.1172,"EPHEMERIS_TYPE":0,"CLASSIFICATION_TYPE":"U","NORAD_CAT_ID":54666,"ELEMENT_SET_NO":999,"REV_AT_EPOCH":12918,"BSTAR":0.00023277,"MEAN_MOTION_DOT":1.09e-6,"MEAN_MOTION_DDOT":0},{"OBJECT_NAME":"ONEWEB-0603","OBJECT_ID":"2022-166AB","EPOCH":"2025-07-31T19:24:09.068256","MEAN_MOTION":13.2182692,"ECCENTRICITY":0.0002162,"INCLINATION":87.9268,"RA_OF_ASC_NODE":307.8587,"ARG_OF_PERICENTER":105.8826,"MEAN_ANOMALY":254.2547,"EPHEMERIS_TYPE":0,"CLASSIFICATION_TYPE":"U","NORAD_CAT_ID":54667,"ELEMENT_SET_NO":999,"REV_AT_EPOCH":12961,"BSTAR":-9.4059e-5,"MEAN_MOTION_DOT":-2.6e-7,"MEAN_MOTION_DDOT":0},{"OBJECT_NAME":"ONEWEB-0604","OBJECT_ID":"2022-166AC","EPOCH":"2025-07-31T19:05:59.949600","MEAN_MOTION":13.21825642,"ECCENTRICITY":0.0002201,"INCLINATION":87.9273,"RA_OF_ASC_NODE":307.8834,"ARG_OF_PERICENTER":102.8315,"MEAN_ANOMALY":257.3065,"EPHEMERIS_TYPE":0,"CLASSIFICATION_TYPE":"U","NORAD_CAT_ID":54668,"ELEMENT_SET_NO":999,"REV_AT_EPOCH":12958,"BSTAR":-0.00012788,"MEAN_MOTION_DOT":-4.0e-7,"MEAN_MOTION_DDOT":0},{"OBJECT_NAME":"ONEWEB-0605","OBJECT_ID":"2022-166AD","EPOCH":"2025-07-31T13:29:53.323872","MEAN_MOTION":13.218265,"ECCENTRICITY":0.0001981,"INCLINATION":87.9272,"RA_OF_ASC_NODE":307.9608,"ARG_OF_PERICENTER":120.265,"MEAN_ANOMALY":239.868,"EPHEMERIS_TYPE":0,"CLASSIFICATION_TYPE":"U","NORAD_CAT_ID":54669,"ELEMENT_SET_NO":999,"REV_AT_EPOCH":12915,"BSTAR":7.7992e-5,"MEAN_MOTION_DOT":4.5e-7,"MEAN_MOTION_DDOT":0},{"OBJECT_NAME":"ONEWEB-0606","OBJECT_ID":"2022-166AE","EPOCH":"2025-07-31T12:12:41.579712","MEAN_MOTION":13.2182615,"ECCENTRICITY":0.0001901,"INCLINATION":87.9271,"RA_OF_ASC_NODE":307.9824,"ARG_OF_PERICENTER":95.7591,"MEAN_ANOMALY":264.376,"EPHEMERIS_TYPE":0,"CLASSIFICATION_TYPE":"U","NORAD_CAT_ID":54670,"ELEMENT_SET_NO":999,"REV_AT_EPOCH":12920,"BSTAR":0.00035317,"MEAN_MOTION_DOT":1.59e-6,"MEAN_MOTION_DDOT":0},{"OBJECT_NAME":"ONEWEB-0607","OBJECT_ID":"2022-166AF","EPOCH":"2025-07-31T18:41:01.265568","MEAN_MOTION":13.21824328,"ECCENTRICITY":0.0002076,"INCLINATION":87.9271,"RA_OF_ASC_NODE":307.893,"ARG_OF_PERICENTER":103.8324,"MEAN_ANOMALY":256.3041,"EPHEMERIS_TYPE":0,"CLASSIFICATION_TYPE":"U","NORAD_CAT_ID":54671,"ELEMENT_SET_NO":999,"REV_AT_EPOCH":12967,"BSTAR":-1.5646e-5,"MEAN_MOTION_DOT":7.0e-8,"MEAN_MOTION_DDOT":0},{"OBJECT_NAME":"ONEWEB-0608","OBJECT_ID":"2022-166AG","EPOCH":"2025-07-31T07:56:03.676704","MEAN_MOTION":13.21827827,"ECCENTRICITY":0.0002231,"INCLINATION":87.9264,"RA_OF_ASC_NODE":307.9687,"ARG_OF_PERICENTER":113.6954,"MEAN_ANOMALY":246.4414,"EPHEMERIS_TYPE":0,"CLASSIFICATION_TYPE":"U","NORAD_CAT_ID":54672,"ELEMENT_SET_NO":999,"REV_AT_EPOCH":12916,"BSTAR":-4.7465e-5,"MEAN_MOTION_DOT":-7.0e-8,"MEAN_MOTION_DDOT":0},{"OBJECT_NAME":"ONEWEB-0610","OBJECT_ID":"2022-166AH","EPOCH":"2025-07-31T12:55:48.511488","MEAN_MOTION":13.21831909,"ECCENTRICITY":0.0002259,"INCLINATION":87.9273,"RA_OF_ASC_NODE":307.9611,"ARG_OF_PERICENTER":114.5561,"MEAN_ANOMALY":245.5808,"EPHEMERIS_TYPE":0,"CLASSIFICATION_TYPE":"U","NORAD_CAT_ID":54673,"ELEMENT_SET_NO":999,"REV_AT_EPOCH":12909,"BSTAR":0.00015033,"MEAN_MOTION_DOT":7.5e-7,"MEAN_MOTION_DDOT":0},{"OBJECT_NAME":"ONEWEB-0611","OBJECT_ID":"2022-166AJ","EPOCH":"2025-07-31T05:30:43.770528","MEAN_MOTION":13.21826696,"ECCENTRICITY":0.0001987,"INCLINATION":87.927,"RA_OF_ASC_NODE":308.0194,"ARG_OF_PERICENTER":92.603,"MEAN_ANOMALY":267.5332,"EPHEMERIS_TYPE":0,"CLASSIFICATION_TYPE":"U","NORAD_CAT_ID":54674,"ELEMENT_SET_NO":999,"REV_AT_EPOCH":12904,"BSTAR":0.00024272,"MEAN_MOTION_DOT":1.13e-6,"MEAN_MOTION_DDOT":0},{"OBJECT_NAME":"ONEWEB-0612","OBJECT_ID":"2022-166AK","EPOCH":"2025-07-31T18:31:55.497504","MEAN_MOTION":13.21825455,"ECCENTRICITY":0.0002073,"INCLINATION":87.9271,"RA_OF_ASC_NODE":307.8887,"ARG_OF_PERICENTER":105.5781,"MEAN_ANOMALY":254.5582,"EPHEMERIS_TYPE":0,"CLASSIFICATION_TYPE":"U","NORAD_CAT_ID":54675,"ELEMENT_SET_NO":999,"REV_AT_EPOCH":12957,"BSTAR":9.2259e-6,"MEAN_MOTION_DOT":1.7e-7,"MEAN_MOTION_DDOT":0}]
