ONEWEB-0593             
1 54659U 22166T   25212.60973813  .00000044  00000+0  75449-4 0  9995
2 54659  87.9271 307.9407 0002056 105.0375 255.0986 13.21826118129199
ONEWEB-0594             
1 54660U 22166U   25212.78005339 -.00000043  00000+0 -13522-3 0  9999
2 54660  87.9273 307.9218 0002037  98.0284 262.1081 13.21825359129698
ONEWEB-0595             
1 54661U 22166V   25212.30379381  .00000081  00000+0  16420-3 0  9999
2 54661  87.9272 307.9929 0001846  95.2700 264.8645 13.21826530129143
ONEWEB-0596             
1 54662U 22166W   25212.50407300  .00000111  00000+0  23609-3 0  9996
2 54662  87.9272 307.9676 0001912 100.5458 259.5891 13.21826148129179
ONEWEB-0597             
1 54663U 22166X   25212.56085464  .00001203  00000+0  28822-2 0  9990
2 54663  87.9273 307.9597 0002054 103.8594 256.2768 13.21821573129183
ONEWEB-0600             
1 54664U 22166Y   25212.77059581  .00000015  00000+0  36213-5 0  9991
2 54664  87.9266 307.9142 0002147 101.0263 259.1112 13.21825921129656
ONEWEB-0601             
1 54665U 22166Z   25212.53561195  .00000140  00000+0  30647-3 0  9997
2 54665  87.9273 307.9755 0002109 109.3259 250.8103 13.21826778129344
ONEWEB-0602             
1 54666U 22166AA  25212.50091519  .00000109  00000+0  23277-3 0  9999
2 54666  87.9276 307.9831 0002251 103.0213 257.1172 13.21827233129187
ONEWEB-0603             
1 54667U 22166AB  25212.80843829 -.00000026  00000+0 -94059-4 0  9999
2 54667  87.9268 307.8587 0002162 105.8826 254.2547 13.21826920129611
ONEWEB-0604             
1 54668U 22166AC  25212.79583275 -.00000040  00000+0 -12788-3 0  9998
2 54668  87.9273 307.8834 0002201 102.8315 257.3065 13.21825642129582
ONEWEB-0605             
1 54669U 22166AD  25212.56242273  .00000045  00000+0  77992-4 0  9996
2 54669  87.9272 307.9608 0001981 120.2650 239.8680 13.21826500129157
ONEWEB-0606             
1 54670U 22166AE  25212.50881458  .00000159  00000+0  35317-3 0  9996
2 54670  87.9271 307.9824 0001901  95.7591 264.3760 13.21826150129209
ONEWEB-0607             
1 54671U 22166AF  25212.77848687  .00000007  00000+0 -15646-4 0  9990
2 54671  87.9271 307.8930 0002076 103.8324 256.3041 13.21824328129675
ONEWEB-0608             
1 54672U 22166AG  25212.33059811 -.00000007  00000+0 -47465-4 0  9991
2 54672  87.9264 307.9687 0002231 113.6954 246.4414 13.21827827129164
ONEWEB-0610             
1 54673U 22166AH  25212.53875592  .00000075  00000+0  15033-3 0  9994
2 54673  87.9273 307.9611 0002259 114.5561 245.5808 13.21831909129091
ONEWEB-0611             
1 54674U 22166AJ  25212.22967327  .00000113  00000+0  24272-3 0  9997
2 54674  87.9270 308.0194 0001987  92.6030 267.5332 13.21826696129049
ONEWEB-0612             
1 54675U 22166AK  25212.77217011  .00000017  00000+0  92259-5 0  9991
2 54675  87.9271 307.8887 0002073 105.5781 254.5582 13.21825455129574
